CCSDS_OMM_VERS = 2.0
CREATION_DATE  = 
ORIGINATOR     = 

OBJECT_NAME    = ALOS-2
OBJECT_ID      = 2014-029A
CENTER_NAME    = EARTH
REF_FRAME      = TEME
TIME_SYSTEM    = UTC
MEAN_ELEMENT_THEORY = SGP/SGP4

EPOCH          = 2026-03-29T04:43:39.592992
MEAN_MOTION    = 14.79445822
ECCENTRICITY   = .0001909
INCLINATION    = 97.9187
RA_OF_ASC_NODE = 186.5103
ARG_OF_PERICENTER = 102.7133
MEAN_ANOMALY   = 257.4292

EPHEMERIS_TYPE = 0
CLASSIFICATION_TYPE = U
NORAD_CAT_ID   = 39766
ELEMENT_SET_NO = 999
REV_AT_EPOCH   = 63975
BSTAR          = .17327E-3
MEAN_MOTION_DOT = .1242E-4
MEAN_MOTION_DDOT = 0

CCSDS_OMM_VERS = 2.0
CREATION_DATE  = 
ORIGINATOR     = 

OBJECT_NAME    = YAOGAN-29
OBJECT_ID      = 2015-069A
CENTER_NAME    = EARTH
REF_FRAME      = TEME
TIME_SYSTEM    = UTC
MEAN_ELEMENT_THEORY = SGP/SGP4

EPOCH          = 2026-03-29T03:48:44.457696
MEAN_MOTION    = 14.83014843
ECCENTRICITY   = .0000462
INCLINATION    = 98.0121
RA_OF_ASC_NODE = 116.6387
ARG_OF_PERICENTER = 357.2368
MEAN_ANOMALY   = 2.8842

EPHEMERIS_TYPE = 0
CLASSIFICATION_TYPE = U
NORAD_CAT_ID   = 41038
ELEMENT_SET_NO = 999
REV_AT_EPOCH   = 55876
BSTAR          = .53859E-4
MEAN_MOTION_DOT = .384E-5
MEAN_MOTION_DDOT = 0

CCSDS_OMM_VERS = 2.0
CREATION_DATE  = 
ORIGINATOR     = 

OBJECT_NAME    = ASTRO-H (HITOMI)
OBJECT_ID      = 2016-012A
CENTER_NAME    = EARTH
REF_FRAME      = TEME
TIME_SYSTEM    = UTC
MEAN_ELEMENT_THEORY = SGP/SGP4

EPOCH          = 2026-03-29T01:37:11.036640
MEAN_MOTION    = 15.10124724
ECCENTRICITY   = .000964
INCLINATION    = 30.9988
RA_OF_ASC_NODE = 231.4855
ARG_OF_PERICENTER = 167.0223
MEAN_ANOMALY   = 193.0664

EPHEMERIS_TYPE = 0
CLASSIFICATION_TYPE = U
NORAD_CAT_ID   = 41337
ELEMENT_SET_NO = 999
REV_AT_EPOCH   = 55516
BSTAR          = .20681E-3
MEAN_MOTION_DOT = .3553E-4
MEAN_MOTION_DDOT = 0

CCSDS_OMM_VERS = 2.0
CREATION_DATE  = 
ORIGINATOR     = 

OBJECT_NAME    = HXMT (HUIYAN)
OBJECT_ID      = 2017-034A
CENTER_NAME    = EARTH
REF_FRAME      = TEME
TIME_SYSTEM    = UTC
MEAN_ELEMENT_THEORY = SGP/SGP4

EPOCH          = 2026-03-28T23:54:44.135424
MEAN_MOTION    = 15.17702674
ECCENTRICITY   = .0031866
INCLINATION    = 43.0136
RA_OF_ASC_NODE = 269.3163
ARG_OF_PERICENTER = 354.2354
MEAN_ANOMALY   = 5.8124

EPHEMERIS_TYPE = 0
CLASSIFICATION_TYPE = U
NORAD_CAT_ID   = 42758
ELEMENT_SET_NO = 999
REV_AT_EPOCH   = 48547
BSTAR          = .29619E-3
MEAN_MOTION_DOT = .592E-4
MEAN_MOTION_DDOT = 0

CCSDS_OMM_VERS = 2.0
CREATION_DATE  = 
ORIGINATOR     = 

OBJECT_NAME    = SAOCOM 1A
OBJECT_ID      = 2018-076A
CENTER_NAME    = EARTH
REF_FRAME      = TEME
TIME_SYSTEM    = UTC
MEAN_ELEMENT_THEORY = SGP/SGP4

EPOCH          = 2026-03-29T04:53:06.434880
MEAN_MOTION    = 14.82160056
ECCENTRICITY   = .0001434
INCLINATION    = 97.8906
RA_OF_ASC_NODE = 276.1007
ARG_OF_PERICENTER = 86.2121
MEAN_ANOMALY   = 273.9256

EPHEMERIS_TYPE = 0
CLASSIFICATION_TYPE = U
NORAD_CAT_ID   = 43641
ELEMENT_SET_NO = 999
REV_AT_EPOCH   = 40425
BSTAR          = .64811E-4
MEAN_MOTION_DOT = .464E-5
MEAN_MOTION_DDOT = 0

CCSDS_OMM_VERS = 2.0
CREATION_DATE  = 
ORIGINATOR     = 

OBJECT_NAME    = H-2A R/B
OBJECT_ID      = 2018-084L
CENTER_NAME    = EARTH
REF_FRAME      = TEME
TIME_SYSTEM    = UTC
MEAN_ELEMENT_THEORY = SGP/SGP4

EPOCH          = 2026-03-29T04:52:42.559968
MEAN_MOTION    = 15.42169578
ECCENTRICITY   = .0023691
INCLINATION    = 98.8708
RA_OF_ASC_NODE = 309.7726
ARG_OF_PERICENTER = 317.2037
MEAN_ANOMALY   = 42.7360

EPHEMERIS_TYPE = 0
CLASSIFICATION_TYPE = U
NORAD_CAT_ID   = 43682
ELEMENT_SET_NO = 999
REV_AT_EPOCH   = 40878
BSTAR          = .62997E-3
MEAN_MOTION_DOT = .27229E-3
MEAN_MOTION_DDOT = 0

CCSDS_OMM_VERS = 2.0
CREATION_DATE  = 
ORIGINATOR     = 

OBJECT_NAME    = SAOCOM 1B
OBJECT_ID      = 2020-059A
CENTER_NAME    = EARTH
REF_FRAME      = TEME
TIME_SYSTEM    = UTC
MEAN_ELEMENT_THEORY = SGP/SGP4

EPOCH          = 2026-03-29T04:00:52.498656
MEAN_MOTION    = 14.82156410
ECCENTRICITY   = .0001529
INCLINATION    = 97.8906
RA_OF_ASC_NODE = 275.1628
ARG_OF_PERICENTER = 86.3040
MEAN_ANOMALY   = 273.8348

EPHEMERIS_TYPE = 0
CLASSIFICATION_TYPE = U
NORAD_CAT_ID   = 46265
ELEMENT_SET_NO = 999
REV_AT_EPOCH   = 30163
BSTAR          = .46531E-4
MEAN_MOTION_DOT = .318E-5
MEAN_MOTION_DDOT = 0

CCSDS_OMM_VERS = 2.0
CREATION_DATE  = 
ORIGINATOR     = 

OBJECT_NAME    = CSS (TIANHE)
OBJECT_ID      = 2021-035A
CENTER_NAME    = EARTH
REF_FRAME      = TEME
TIME_SYSTEM    = UTC
MEAN_ELEMENT_THEORY = SGP/SGP4

EPOCH          = 2026-03-28T23:18:08.263008
MEAN_MOTION    = 15.61596075
ECCENTRICITY   = .0003972
INCLINATION    = 41.4668
RA_OF_ASC_NODE = 90.7542
ARG_OF_PERICENTER = 51.5615
MEAN_ANOMALY   = 308.5580

EPHEMERIS_TYPE = 0
CLASSIFICATION_TYPE = U
NORAD_CAT_ID   = 48274
ELEMENT_SET_NO = 999
REV_AT_EPOCH   = 28062
BSTAR          = .17362E-3
MEAN_MOTION_DOT = .15046E-3
MEAN_MOTION_DDOT = 0

CCSDS_OMM_VERS = 2.0
CREATION_DATE  = 
ORIGINATOR     = 

OBJECT_NAME    = COSMOS 2550
OBJECT_ID      = 2021-056A
CENTER_NAME    = EARTH
REF_FRAME      = TEME
TIME_SYSTEM    = UTC
MEAN_ELEMENT_THEORY = SGP/SGP4

EPOCH          = 2026-03-28T11:49:31.757952
MEAN_MOTION    = 15.33828274
ECCENTRICITY   = .000844
INCLINATION    = 67.1421
RA_OF_ASC_NODE = 344.0047
ARG_OF_PERICENTER = 269.5686
MEAN_ANOMALY   = 90.4502

EPHEMERIS_TYPE = 0
CLASSIFICATION_TYPE = U
NORAD_CAT_ID   = 48865
ELEMENT_SET_NO = 999
REV_AT_EPOCH   = 26634
BSTAR          = .189685E-6
MEAN_MOTION_DOT = -.186E-5
MEAN_MOTION_DDOT = 0

CCSDS_OMM_VERS = 2.0
CREATION_DATE  = 
ORIGINATOR     = 

OBJECT_NAME    = CZ-2C R/B
OBJECT_ID      = 2022-058K
CENTER_NAME    = EARTH
REF_FRAME      = TEME
TIME_SYSTEM    = UTC
MEAN_ELEMENT_THEORY = SGP/SGP4

EPOCH          = 2026-03-28T15:54:43.791840
MEAN_MOTION    = 15.55620973
ECCENTRICITY   = .004154
INCLINATION    = 50.1874
RA_OF_ASC_NODE = 220.5877
ARG_OF_PERICENTER = 282.1630
MEAN_ANOMALY   = 77.4689

EPHEMERIS_TYPE = 0
CLASSIFICATION_TYPE = U
NORAD_CAT_ID   = 52794
ELEMENT_SET_NO = 999
REV_AT_EPOCH   = 21308
BSTAR          = .63634E-3
MEAN_MOTION_DOT = .46065E-3
MEAN_MOTION_DDOT = 0

CCSDS_OMM_VERS = 2.0
CREATION_DATE  = 
ORIGINATOR     = 

OBJECT_NAME    = CZ-2C R/B
OBJECT_ID      = 2022-132E
CENTER_NAME    = EARTH
REF_FRAME      = TEME
TIME_SYSTEM    = UTC
MEAN_ELEMENT_THEORY = SGP/SGP4

EPOCH          = 2026-03-29T02:15:03.209760
MEAN_MOTION    = 15.63668117
ECCENTRICITY   = .0017581
INCLINATION    = 97.2957
RA_OF_ASC_NODE = 92.0262
ARG_OF_PERICENTER = 27.9377
MEAN_ANOMALY   = 332.2821

EPHEMERIS_TYPE = 0
CLASSIFICATION_TYPE = U
NORAD_CAT_ID   = 54039
ELEMENT_SET_NO = 999
REV_AT_EPOCH   = 19340
BSTAR          = .52394E-3
MEAN_MOTION_DOT = .49218E-3
MEAN_MOTION_DDOT = 0

CCSDS_OMM_VERS = 2.0
CREATION_DATE  = 
ORIGINATOR     = 

OBJECT_NAME    = GSLV R/B
OBJECT_ID      = 2022-138AN
CENTER_NAME    = EARTH
REF_FRAME      = TEME
TIME_SYSTEM    = UTC
MEAN_ELEMENT_THEORY = SGP/SGP4

EPOCH          = 2026-03-29T04:11:55.870080
MEAN_MOTION    = 14.96897449
ECCENTRICITY   = .0024016
INCLINATION    = 87.3861
RA_OF_ASC_NODE = 159.8394
ARG_OF_PERICENTER = 82.5349
MEAN_ANOMALY   = 277.8611

EPHEMERIS_TYPE = 0
CLASSIFICATION_TYPE = U
NORAD_CAT_ID   = 54149
ELEMENT_SET_NO = 999
REV_AT_EPOCH   = 18684
BSTAR          = .27099E-3
MEAN_MOTION_DOT = .3155E-4
MEAN_MOTION_DDOT = 0

